MEAN_MOTION;ECCENTRICITY;INCLINATION;RA_OF_ASC_NODE;ARG_OF_PERICENTER;MEAN_ANOMALY;BSTAR;MEAN_MOTION_DOT;MEAN_MOTION_DDOT;TYPE
11.1209408;0.0001764;51.9902;333.0805;172.3905;187.6919;0.0012457;-2.9E-7;0;Globalstar
11.12094183;0.0001771;51.99;330.8399;172.7871;187.2951;0.0014161;-2.4E-7;0;Globalstar
11.12094361;0.000177;51.9898;328.3957;173.6818;186.4001;0.0017984;-1.3E-7;0;Globalstar
11.12094382;0.0001767;51.9898;327.7846;173.9176;186.1642;0.0017491;-1.5E-7;0;Globalstar
11.12094439;0.0001769;51.9897;326.5625;174.4859;185.5957;0.0017873;-1.4E-7;0;Globalstar
11.1209449;0.0001767;51.9897;325.7478;174.7152;185.3663;0.0018608;-1.2E-7;0;Globalstar
11.12094692;0.0001769;51.9896;324.3219;175.3559;184.7254;0.002329;2.0E-8;0;Globalstar
11.1209484;0.0001758;51.9895;322.0816;176.1017;183.9793;0.0028814;1.8E-7;0;Globalstar
11.12095143;0.0001739;51.9892;319.4334;178.1173;181.9631;0.0029161;1.9E-7;0;Globalstar
11.12095269;0.0001729;51.989;317.1928;179.5803;180.4995;0.0023483;2.0E-8;0;Globalstar
11.12095331;0.0001733;51.9888;314.9521;181.1792;178.9;0.0016854;-1.7E-7;0;Globalstar
11.12095006;0.0001736;51.9885;312.7112;182.9312;177.1474;0.00069054;-4.5E-7;0;Globalstar
11.12094949;0.0001731;51.9883;310.4705;184.2533;175.8249;0.00017641;-6.0E-7;0;Globalstar
11.12094896;0.0001727;51.9881;308.2298;185.5264;174.5513;-0.00032392;-7.5E-7;0;Globalstar
11.12094883;0.0001728;51.9881;307.8224;185.6855;174.3922;-0.00041393;-7.7E-7;0;Globalstar
11.1209477;0.0001733;51.988;305.989;186.6536;173.4238;-0.00078465;-8.8E-7;0;Globalstar
11.1209476;0.0001733;51.9879;305.5816;186.8331;173.2442;-0.00083903;-8.9E-7;0;Globalstar
11.12094644;0.0001742;51.9878;303.5445;187.9467;172.1302;-0.0012568;-1.01E-6;0;Globalstar
11.12094543;0.0001743;51.9876;301.3038;189.2186;170.8579;-0.0015118;-1.09E-6;0;Globalstar
11.12094385;0.0001758;51.9875;299.063;190.1238;169.9523;-0.0017128;-1.15E-6;0;Globalstar
11.12094248;0.0001734;51.9874;296.8222;191.691;168.3846;-0.0018553;-1.19E-6;0;Globalstar
11.12094086;0.0001723;51.9873;294.5815;193.2637;166.8115;-0.002006;-1.23E-6;0;Globalstar
11.12093959;0.0001722;51.9872;292.9518;194.2926;165.7822;-0.0021545;-1.27E-6;0;Globalstar
11.12093936;0.0001724;51.9872;292.3407;194.6067;165.468;-0.0020912;-1.25E-6;0;Globalstar
11.12093858;0.0001724;51.9871;290.9147;195.5596;164.5148;-0.0020969;-1.26E-6;0;Globalstar
11.12093682;0.0001729;51.9869;287.859;197.5394;162.5343;-0.0020935;-1.26E-6;0;Globalstar
11.12093562;0.0001712;51.9867;285.4144;199.4439;160.6293;-0.0020057;-1.23E-6;0;Globalstar
11.12093522;0.000172;51.9867;284.1922;200.2946;159.7783;-0.0019498;-1.21E-6;0;Globalstar
11.12093478;0.0001716;51.9867;283.3773;200.8495;159.2231;-0.0019151;-1.2E-6;0;Globalstar
11.12093419;0.0001706;51.9867;283.1736;201.0804;158.9922;-0.0020589;-1.25E-6;0;Globalstar
11.12093353;0.000169;51.9866;280.9328;202.8579;157.2143;-0.0018515;-1.19E-6;0;Globalstar
11.12093298;0.0001686;51.9865;278.8956;204.3929;155.6788;-0.0016434;-1.13E-6;0;Globalstar
11.12093236;0.0001675;51.9864;276.6547;206.039;154.0322;-0.0014604;-1.07E-6;0;Globalstar
11.12093225;0.0001655;51.9863;275.2287;207.2004;152.8706;-0.0011441;-9.8E-7;0;Globalstar
11.12093022;0.0001641;51.9861;272.9878;208.7891;151.2815;-0.00074586;-8.7E-7;0;Globalstar
11.12093029;0.0001641;51.9861;272.1729;209.3714;150.699;-0.00048995;-7.9E-7;0;Globalstar
11.12093015;0.0001636;51.9861;269.932;211.2482;148.8217;-5.2115E-5;-6.7E-7;0;Globalstar
11.12093075;0.0001639;51.9861;267.4874;213.3063;146.7631;0.00038915;-5.4E-7;0;Globalstar
11.12093139;0.0001645;51.9862;265.4503;214.95;145.1188;0.00063071;-4.7E-7;0;Globalstar
11.12093202;0.0001652;51.9862;263.2094;216.8701;143.1982;0.00070957;-4.5E-7;0;Globalstar
11.12093406;0.0001677;51.9862;260.5612;219.1206;140.9469;0.0010578;-3.5E-7;0;Globalstar
11.12093499;0.000168;51.9862;258.3205;221.1777;138.8893;0.0010922;-3.4E-7;0;Globalstar
11.12093615;0.0001697;51.9863;256.4871;222.7968;137.2696;0.0012842;-2.8E-7;0;Globalstar
11.12093832;0.000172;51.9863;254.0427;224.9138;135.152;0.0018241;-1.3E-7;0;Globalstar
11.12093848;0.0001721;51.9863;253.839;225.0782;134.9875;0.001867;-1.1E-7;0;Globalstar
11.12093992;0.0001736;51.9863;251.5983;227.1281;132.9369;0.0022074;-2.0E-8;0;Globalstar
11.12094111;0.0001754;51.9864;249.3575;229.0788;130.9856;0.0024832;6.0E-8;0;Globalstar
11.12094179;0.0001775;51.9864;247.5242;230.664;129.4;0.0025301;8.0E-8;0;Globalstar
11.12094253;0.0001786;51.9866;245.4872;232.4546;127.6088;0.0025999;1.0E-7;0;Globalstar
11.12094251;0.0001789;51.9866;245.2835;232.6373;127.4261;0.0026016;1.0E-7;0;Globalstar
11.12094311;0.0001809;51.9867;243.4502;234.3001;125.7627;0.0024666;6.0E-8;0;Globalstar
11.12094271;0.0001845;51.9868;241.0062;236.7603;123.3016;0.0011005;-3.4E-7;0;Globalstar
11.12094292;0.0001854;51.9869;237.9509;239.5225;120.5388;0.00084563;-4.1E-7;0;Globalstar
11.12094278;0.0001862;51.9869;235.7102;241.3921;118.6688;0.000672;-4.6E-7;0;Globalstar
11.12094249;0.0001868;51.987;234.2843;242.5977;117.4629;0.00053305;-5.0E-7;0;Globalstar
11.12094293;0.0001871;51.9869;233.4695;243.1757;116.8848;0.00066968;-4.6E-7;0;Globalstar
11.120943;0.0001866;51.987;231.2288;245.0568;115.0034;0.00062494;-4.7E-7;0;Globalstar
11.12094301;0.0001867;51.987;229.5993;246.4337;113.6264;0.00053827;-5.0E-7;0;Globalstar
11.12094359;0.0001867;51.9869;227.3587;248.4778;111.582;0.00059739;-4.8E-7;0;Globalstar
11.12094685;0.0001855;51.987;225.1182;250.4249;109.6348;0.00095816;-3.8E-7;0;Globalstar
11.12094685;0.0001855;51.987;225.1182;250.4249;109.6348;0.00095816;-3.8E-7;0;Globalstar
11.12094899;0.0001865;51.9869;222.8776;252.3877;107.6716;0.0014267;-2.4E-7;0;Globalstar
11.12095114;0.0001877;51.9868;220.6368;254.4077;105.6512;0.0017576;-1.5E-7;0;Globalstar
11.12095189;0.0001891;51.9868;219.8221;255.2152;104.8435;0.0017741;-1.4E-7;0;Globalstar
11.1209549;0.0001913;51.9868;217.7852;257.427;102.6313;0.0022452;-1.0E-8;0;Globalstar
11.12095806;0.0001951;51.9867;215.5446;259.7028;100.3548;0.0023649;3.0E-8;0;Globalstar
11.12096037;0.000199;51.9866;213.304;261.824;98.233;0.001962;-9.0E-8;0;Globalstar
11.12096301;0.0002057;51.9865;209.2303;265.5231;94.5331;0.00050506;-5.1E-7;0;Globalstar
11.12096347;0.0002098;51.9863;206.5824;268.0242;92.0314;-0.00063714;-8.4E-7;0;Globalstar
11.12096315;0.0002113;51.9862;205.5639;268.9277;91.1277;-0.0010791;-9.6E-7;0;Globalstar
11.12096294;0.0002126;51.9862;204.7492;269.6334;90.4219;-0.0013831;-1.05E-6;0;Globalstar
11.12096289;0.0002136;51.9861;204.3418;270.1019;89.9532;-0.0015381;-1.1E-6;0;Globalstar
11.12096165;0.0002159;51.986;202.5086;271.7735;88.2814;-0.0021755;-1.28E-6;0;Globalstar
11.12096141;0.0002168;51.9859;202.1013;272.2159;87.8389;-0.0022703;-1.31E-6;0;Globalstar
11.12095902;0.0002201;51.9857;199.8606;274.2848;85.7697;-0.0029393;-1.5E-6;0;Globalstar
11.12095725;0.0002221;51.9857;197.6197;276.2982;83.7561;-0.0021939;-1.28E-6;0;Globalstar
11.12095542;0.0002239;51.9855;195.7865;277.9054;82.1488;-0.0023701;-1.33E-6;0;Globalstar
11.12095529;0.0002246;51.9855;195.3791;278.3039;81.7503;-0.0023797;-1.34E-6;0;Globalstar
11.12095347;0.0002269;51.9854;193.1385;280.2887;79.7653;-0.002462;-1.36E-6;0;Globalstar
11.12095156;0.0002294;51.9852;190.8978;282.2302;77.8237;-0.0023805;-1.34E-6;0;Globalstar
11.12094965;0.0002316;51.985;188.6571;284.1586;75.8953;-0.002204;-1.29E-6;0;Globalstar
11.12094813;0.0002338;51.9849;186.4164;286.0211;74.0328;-0.0019043;-1.2E-6;0;Globalstar
11.12094752;0.0002355;51.9847;184.3794;287.7698;72.2841;-0.0014963;-1.08E-6;0;Globalstar
11.12094741;0.0002356;51.9847;184.1757;287.9194;72.1346;-0.0013997;-1.06E-6;0;Globalstar
11.12094661;0.0002373;51.9846;181.9349;289.8151;70.2389;-0.00095629;-9.3E-7;0;Globalstar
11.12094646;0.0002387;51.9845;179.8979;291.4266;68.6275;-0.00040916;-7.7E-7;0;Globalstar
11.12094668;0.0002389;51.9845;179.6942;291.6013;68.4528;-0.00030367;-7.4E-7;0;Globalstar
11.12094559;0.0002415;51.984;177.4537;293.2833;66.7709;-0.00011628;-6.9E-7;0;Globalstar
11.12094546;0.0002424;51.9839;176.2314;294.333;65.7214;-0.00010505;-6.8E-7;0;Globalstar
11.12094594;0.0002421;51.9839;175.213;295.0484;65.0061;0.00027065;-5.7E-7;0;Globalstar
11.1209461;0.0002432;51.9838;172.9722;296.92;63.1348;0.00056183;-4.9E-7;0;Globalstar
11.1209466;0.0002442;51.9837;170.7314;298.8453;61.2099;0.0010632;-3.5E-7;0;Globalstar
11.12094732;0.0002452;51.9836;168.4906;300.6627;59.3928;0.0016265;-1.8E-7;0;Globalstar
11.12094772;0.0002458;51.9836;167.0646;301.8717;58.184;0.0018291;-1.3E-7;0;Globalstar
11.12094827;0.0002461;51.9836;166.2498;302.6298;57.4261;0.0021838;-2.0E-8;0;Globalstar
11.12094977;0.0002473;51.9836;163.8052;304.7565;55.2999;0.0027433;1.4E-7;0;Globalstar
11.12095107;0.0002483;51.9836;161.5643;306.6638;53.393;0.0029662;2.0E-7;0;Globalstar
11.12095229;0.0002491;51.9837;159.7309;308.2812;51.776;0.0030662;2.3E-7;0;Globalstar
11.12095488;0.0002514;51.9839;155.0456;312.4091;47.6492;0.0024392;5.0E-8;0;Globalstar
11.12095502;0.0002515;51.9839;154.8419;312.5559;47.5025;0.0023816;3.0E-8;0;Globalstar
11.1209547;0.0002522;51.9842;152.601;314.7119;45.3472;0.0015748;-2.0E-7;0;Globalstar
11.12095585;0.0002534;51.9843;150.3602;316.332;43.7276;0.0015626;-2.0E-7;0;Globalstar
11.12095807;0.0002542;51.9841;148.1194;317.9979;42.0622;0.0011341;-3.3E-7;0;Globalstar
11.12095876;0.0002555;51.9842;145.8785;319.9511;40.1097;0.00088704;-4.0E-7;0;Globalstar
11.12095812;0.0002567;51.9847;144.0452;320.9497;39.1114;0.0010143;-3.6E-7;0;Globalstar
11.12095809;0.0002571;51.9847;143.6377;321.2664;38.7948;0.00090161;-3.9E-7;0;Globalstar
11.12095821;0.0002585;51.9849;140.3784;323.8975;36.1647;0.00026631;-5.8E-7;0;Globalstar
11.12095844;0.0002588;51.9851;138.1376;325.9215;34.1415;-1.3129E-5;-6.6E-7;0;Globalstar
11.12095918;0.0002589;51.9852;136.9154;327.2117;32.8519;8.7026E-5;-6.3E-7;0;Globalstar
11.1209611;0.0002592;51.9852;134.878;329.1144;30.95;0.00061119;-4.8E-7;0;Globalstar
11.12096183;0.0002597;51.9854;132.6372;330.9009;29.1643;0.00046883;-5.2E-7;0;Globalstar
11.12096186;0.0002609;51.9857;130.1928;332.7152;27.3507;-0.00013854;-6.9E-7;0;Globalstar
